start=new Date('2022-07-07T00:00:00.000Z').valueOf();
sats=[{"LAUNCH_DATE":"2020-10-24","OBJECT_NAME":"STARLINK-1918","EPHEMERIS_TYPE":"0","SITE":"AFETR","INCLINATION":"53.0533","COUNTRY_CODE":"US","ELEMENT_SET_NO":"999","APOAPSIS":"548.285","REV_AT_EPOCH":"9417","MEAN_ELEMENT_THEORY":"SGP4","FILE":"3508782","CLASSIFICATION_TYPE":"U","PERIOD":"95.593","NORAD_CAT_ID":"46768","MEAN_MOTION":"15.06386268","RA_OF_ASC_NODE":"241.7616","REF_FRAME":"TEME","MEAN_ANOMALY":"296.3146","ECCENTRICITY":"0.00014860","TLE_LINE1":"1 46768U 20074AF  22187.54112141  .00001921  00000-0  14789-3 0  9998","PERIAPSIS":"546.227","GP_ID":"207537784","BSTAR":"0.00014789000000","MEAN_MOTION_DOT":"0.00001921","CENTER_NAME":"EARTH","RCS_SIZE":"LARGE","SEMIMAJOR_AXIS":"6925.391","TLE_LINE2":"2 46768  53.0533 241.7616 0001486  63.7995 296.3146 15.06386268 94174","OBJECT_ID":"2020-074AF","ARG_OF_PERICENTER":"63.7995","TIME_SYSTEM":"UTC","MEAN_MOTION_DDOT":"0.0000000000000","EPOCH":"2022-07-06T12:59:12.889824","OBJECT_TYPE":"PAYLOAD","DECAY_DATE":null},{"DECAY_DATE":null,"OBJECT_TYPE":"PAYLOAD","EPOCH":"2022-07-06T11:34:22.568160","MEAN_MOTION_DDOT":"0.0000000000000","TIME_SYSTEM":"UTC","ARG_OF_PERICENTER":"56.4146","OBJECT_ID":"2020-074AH","TLE_LINE2":"2 46770  53.0546 242.5759 0001507  56.4146 303.6987 15.06394099 94153","SEMIMAJOR_AXIS":"6925.367","RCS_SIZE":"LARGE","CENTER_NAME":"EARTH","BSTAR":"0.00011554000000","MEAN_MOTION_DOT":"0.00001440","GP_ID":"207538034","PERIAPSIS":"546.188","TLE_LINE1":"1 46770U 20074AH  22187.48220565  .00001440  00000-0  11554-3 0  9997","MEAN_ANOMALY":"303.6987","ECCENTRICITY":"0.00015070","REF_FRAME":"TEME","MEAN_MOTION":"15.06394099","RA_OF_ASC_NODE":"242.5759","PERIOD":"95.593","NORAD_CAT_ID":"46770","CLASSIFICATION_TYPE":"U","FILE":"3508782","MEAN_ELEMENT_THEORY":"SGP4","REV_AT_EPOCH":"9415","APOAPSIS":"548.275","ELEMENT_SET_NO":"999","COUNTRY_CODE":"US","INCLINATION":"53.0546","SITE":"AFETR","EPHEMERIS_TYPE":"0","OBJECT_NAME":"STARLINK-1932","LAUNCH_DATE":"2020-10-24"},{"DECAY_DATE":null,"MEAN_MOTION_DDOT":"0.0000000000000","OBJECT_TYPE":"PAYLOAD","EPOCH":"2022-07-06T13:08:26.849472","CENTER_NAME":"EARTH","RCS_SIZE":"LARGE","SEMIMAJOR_AXIS":"6925.350","OBJECT_ID":"2020-074AK","TLE_LINE2":"2 46772  53.0537 241.7224 0001416  67.8549 292.2590 15.06399674 94174","TIME_SYSTEM":"UTC","ARG_OF_PERICENTER":"67.8549","MEAN_MOTION_DOT":"0.00003635","BSTAR":"0.00026280000000","TLE_LINE1":"1 46772U 20074AK  22187.54753298  .00003635  00000-0  26280-3 0  9990","PERIAPSIS":"546.234","GP_ID":"207539284","MEAN_MOTION":"15.06399674","RA_OF_ASC_NODE":"241.7224","REF_FRAME":"TEME","ECCENTRICITY":"0.00014160","MEAN_ANOMALY":"292.2590","COUNTRY_CODE":"US","REV_AT_EPOCH":"9417","MEAN_ELEMENT_THEORY":"SGP4","ELEMENT_SET_NO":"999","APOAPSIS":"548.195","PERIOD":"95.592","CLASSIFICATION_TYPE":"U","NORAD_CAT_ID":"46772","FILE":"3508782","OBJECT_NAME":"STARLINK-1936","LAUNCH_DATE":"2020-10-24","EPHEMERIS_TYPE":"0","SITE":"AFETR","INCLINATION":"53.0537"},{"BSTAR":"0.00047118000000","MEAN_MOTION_DOT":"0.00008797","ARG_OF_PERICENTER":"12.8797","TIME_SYSTEM":"UTC","OBJECT_ID":"2020-074AM","TLE_LINE2":"2 46774  53.0502 232.9514 0000942  12.8797 347.2220 15.15753611 94299","SEMIMAJOR_AXIS":"6896.829","RCS_SIZE":"LARGE","CENTER_NAME":"EARTH","EPOCH":"2022-07-06T09:48:20.664864","OBJECT_TYPE":"PAYLOAD","MEAN_MOTION_DDOT":"0.0000000000000","DECAY_DATE":null,"INCLINATION":"53.0502","SITE":"AFETR","EPHEMERIS_TYPE":"0","OBJECT_NAME":"STARLINK-1939","LAUNCH_DATE":"2020-10-24","NORAD_CAT_ID":"46774","PERIOD":"95.002","CLASSIFICATION_TYPE":"U","FILE":"3508782","REV_AT_EPOCH":"9429","MEAN_ELEMENT_THEORY":"SGP4","APOAPSIS":"519.343","ELEMENT_SET_NO":"999","COUNTRY_CODE":"US","ECCENTRICITY":"0.00009420","MEAN_ANOMALY":"347.2220","REF_FRAME":"TEME","RA_OF_ASC_NODE":"232.9514","MEAN_MOTION":"15.15753611","GP_ID":"207539535","PERIAPSIS":"518.044","TLE_LINE1":"1 46774U 20074AM  22187.40857251  .00008797  00000-0  47118-3 0  9998"},{"TIME_SYSTEM":"UTC","ARG_OF_PERICENTER":"37.4524","OBJECT_ID":"2020-074AP","TLE_LINE2":"2 46776  53.0510 204.9175 0004238  37.4524 322.6775 15.42196550 94672","SEMIMAJOR_AXIS":"6817.765","RCS_SIZE":"LARGE","CENTER_NAME":"EARTH","BSTAR":"0.00022127000000","MEAN_MOTION_DOT":"0.00009241","DECAY_DATE":null,"OBJECT_TYPE":"PAYLOAD","EPOCH":"2022-07-06T07:33:28.705248","MEAN_MOTION_DDOT":"0.0000000000000","PERIOD":"93.373","NORAD_CAT_ID":"46776","CLASSIFICATION_TYPE":"U","FILE":"3508782","REV_AT_EPOCH":"9467","MEAN_ELEMENT_THEORY":"SGP4","APOAPSIS":"442.519","ELEMENT_SET_NO":"999","COUNTRY_CODE":"US","INCLINATION":"53.0510","SITE":"AFETR","EPHEMERIS_TYPE":"0","OBJECT_NAME":"STARLINK-1946","LAUNCH_DATE":"2020-10-24","GP_ID":"207538284","PERIAPSIS":"436.741","TLE_LINE1":"1 46776U 20074AP  22187.31491557  .00009241  00000-0  22127-3 0  9991","MEAN_ANOMALY":"322.6775","ECCENTRICITY":"0.00042380","REF_FRAME":"TEME","MEAN_MOTION":"15.42196550","RA_OF_ASC_NODE":"204.9175"},{"EPHEMERIS_TYPE":"0","OBJECT_NAME":"STARLINK-1798","LAUNCH_DATE":"2020-10-24","INCLINATION":"53.0547","SITE":"AFETR","COUNTRY_CODE":"US","PERIOD":"95.592","NORAD_CAT_ID":"46779","CLASSIFICATION_TYPE":"U","FILE":"3508782","REV_AT_EPOCH":"9451","MEAN_ELEMENT_THEORY":"SGP4","ELEMENT_SET_NO":"999","APOAPSIS":"548.331","REF_FRAME":"TEME","RA_OF_ASC_NODE":"216.8970","MEAN_MOTION":"15.06405107","ECCENTRICITY":"0.00016360","MEAN_ANOMALY":"302.0822","TLE_LINE1":"1 46779U 20074AS  22187.51208837 -.00000367  00000-0 -57445-5 0  9998","GP_ID":"207538534","PERIAPSIS":"546.065","BSTAR":"-0.00000574450000","MEAN_MOTION_DOT":"-0.00000367","SEMIMAJOR_AXIS":"6925.333","RCS_SIZE":"LARGE","CENTER_NAME":"EARTH","TIME_SYSTEM":"UTC","ARG_OF_PERICENTER":"58.0326","OBJECT_ID":"2020-074AS","TLE_LINE2":"2 46779  53.0547 216.8970 0001636  58.0326 302.0822 15.06405107 94517","MEAN_MOTION_DDOT":"0.0000000000000","OBJECT_TYPE":"PAYLOAD","EPOCH":"2022-07-06T12:17:24.435168","DECAY_DATE":null},{"GP_ID":"207538786","PERIAPSIS":"546.183","TLE_LINE1":"1 46780U 20074AT  22187.50104381  .00002284  00000-0  17227-3 0  9998","ECCENTRICITY":"0.00015630","MEAN_ANOMALY":"297.5468","REF_FRAME":"TEME","MEAN_MOTION":"15.06383020","RA_OF_ASC_NODE":"216.9514","FILE":"3508782","CLASSIFICATION_TYPE":"U","PERIOD":"95.593","NORAD_CAT_ID":"46780","APOAPSIS":"548.348","ELEMENT_SET_NO":"999","REV_AT_EPOCH":"9451","MEAN_ELEMENT_THEORY":"SGP4","COUNTRY_CODE":"US","INCLINATION":"53.0531","SITE":"AFETR","EPHEMERIS_TYPE":"0","LAUNCH_DATE":"2020-10-24","OBJECT_NAME":"STARLINK-1832","DECAY_DATE":null,"EPOCH":"2022-07-06T12:01:30.185184","OBJECT_TYPE":"PAYLOAD","MEAN_MOTION_DDOT":"0.0000000000000","ARG_OF_PERICENTER":"62.5680","TIME_SYSTEM":"UTC","TLE_LINE2":"2 46780  53.0531 216.9514 0001563  62.5680 297.5468 15.06383020 94512","OBJECT_ID":"2020-074AT","RCS_SIZE":"LARGE","SEMIMAJOR_AXIS":"6925.401","CENTER_NAME":"EARTH","MEAN_MOTION_DOT":"0.00002284","BSTAR":"0.00017227000000"},{"GP_ID":"207539036","PERIAPSIS":"546.301","TLE_LINE1":"1 46781U 20074AU  22187.51852874  .00001319  00000-0  10742-3 0  9990","MEAN_ANOMALY":"289.9110","ECCENTRICITY":"0.00013350","REF_FRAME":"TEME","RA_OF_ASC_NODE":"226.8721","MEAN_MOTION":"15.06396048","PERIOD":"95.592","CLASSIFICATION_TYPE":"U","NORAD_CAT_ID":"46781","FILE":"3508782","REV_AT_EPOCH":"9438","MEAN_ELEMENT_THEORY":"SGP4","APOAPSIS":"548.150","ELEMENT_SET_NO":"999","COUNTRY_CODE":"US","INCLINATION":"53.0543","SITE":"AFETR","EPHEMERIS_TYPE":"0","OBJECT_NAME":"STARLINK-1834","LAUNCH_DATE":"2020-10-24","DECAY_DATE":null,"EPOCH":"2022-07-06T12:26:40.883136","OBJECT_TYPE":"PAYLOAD","MEAN_MOTION_DDOT":"0.0000000000000","ARG_OF_PERICENTER":"70.2023","TIME_SYSTEM":"UTC","OBJECT_ID":"2020-074AU","TLE_LINE2":"2 46781  53.0543 226.8721 0001335  70.2023 289.9110 15.06396048 94388","SEMIMAJOR_AXIS":"6925.361","RCS_SIZE":"LARGE","CENTER_NAME":"EARTH","BSTAR":"0.00010742000000","MEAN_MOTION_DOT":"0.00001319"},{"PERIAPSIS":"546.117","GP_ID":"207537785","TLE_LINE1":"1 46782U 20074AV  22187.48995919  .00001144  00000-0  95678-4 0  9993","ECCENTRICITY":"0.00015750","MEAN_ANOMALY":"290.5604","MEAN_MOTION":"15.06402059","RA_OF_ASC_NODE":"216.9850","REF_FRAME":"TEME","ELEMENT_SET_NO":"999","APOAPSIS":"548.298","REV_AT_EPOCH":"9451","MEAN_ELEMENT_THEORY":"SGP4","FILE":"3508782","PERIOD":"95.592","CLASSIFICATION_TYPE":"U","NORAD_CAT_ID":"46782","COUNTRY_CODE":"US","SITE":"AFETR","INCLINATION":"53.0544","LAUNCH_DATE":"2020-10-24","OBJECT_NAME":"STARLINK-1835","EPHEMERIS_TYPE":"0","DECAY_DATE":null,"OBJECT_TYPE":"PAYLOAD","EPOCH":"2022-07-06T11:45:32.474016","MEAN_MOTION_DDOT":"0.0000000000000","TLE_LINE2":"2 46782  53.0544 216.9850 0001575  69.5554 290.5604 15.06402059 94510","OBJECT_ID":"2020-074AV","TIME_SYSTEM":"UTC","ARG_OF_PERICENTER":"69.5554","CENTER_NAME":"EARTH","RCS_SIZE":"LARGE","SEMIMAJOR_AXIS":"6925.342","MEAN_MOTION_DOT":"0.00001144","BSTAR":"0.00009567800000"},{"REF_FRAME":"TEME","RA_OF_ASC_NODE":"216.9303","MEAN_MOTION":"15.06404688","ECCENTRICITY":"0.00019620","MEAN_ANOMALY":"310.2974","TLE_LINE1":"1 46783U 20074AW  22187.50471680 -.00000671  00000-0 -26145-4 0  9990","GP_ID":"207538035","PERIAPSIS":"545.840","EPHEMERIS_TYPE":"0","OBJECT_NAME":"STARLINK-1851","LAUNCH_DATE":"2020-10-24","INCLINATION":"53.0539","SITE":"AFETR","COUNTRY_CODE":"US","PERIOD":"95.592","CLASSIFICATION_TYPE":"U","NORAD_CAT_ID":"46783","FILE":"3508782","REV_AT_EPOCH":"9451","MEAN_ELEMENT_THEORY":"SGP4","APOAPSIS":"548.558","ELEMENT_SET_NO":"999","MEAN_MOTION_DDOT":"0.0000000000000","OBJECT_TYPE":"PAYLOAD","EPOCH":"2022-07-06T12:06:47.531520","DECAY_DATE":null,"BSTAR":"-0.00002614500000","MEAN_MOTION_DOT":"-0.00000671","SEMIMAJOR_AXIS":"6925.334","RCS_SIZE":"LARGE","CENTER_NAME":"EARTH","TIME_SYSTEM":"UTC","ARG_OF_PERICENTER":"49.8186","OBJECT_ID":"2020-074AW","TLE_LINE2":"2 46783  53.0539 216.9303 0001962  49.8186 310.2974 15.06404688 94510"}];
